[{"OBJECT_NAME":"SL-14 R/B","OBJECT_ID":"1986-006B","EPOCH":"2026-03-15T05:46:49.023552","MEAN_MOTION":14.86823519,"ECCENTRICITY":0.00750971,"INCLINATION":82.5236,"RA_OF_ASC_NODE":254.5109,"ARG_OF_PERICENTER":254.0422,"MEAN_ANOMALY":105.2513,"EPHEMERIS_TYPE":0,"CLASSIFICATION_TYPE":"U","NORAD_CAT_ID":16496,"ELEMENT_SET_NO":999,"REV_AT_EPOCH":15003,"BSTAR":7.8789518e-5,"MEAN_MOTION_DOT":7.65e-6,"MEAN_MOTION_DDOT":0},{"OBJECT_NAME":"COSMOS 1743","OBJECT_ID":"1986-034A","EPOCH":"2026-03-15T00:49:43.073184","MEAN_MOTION":15.58979474,"ECCENTRICITY":0.00017034,"INCLINATION":82.5289,"RA_OF_ASC_NODE":68.2189,"ARG_OF_PERICENTER":240.9788,"MEAN_ANOMALY":119.1297,"EPHEMERIS_TYPE":0,"CLASSIFICATION_TYPE":"U","NORAD_CAT_ID":16719,"ELEMENT_SET_NO":999,"REV_AT_EPOCH":18108,"BSTAR":0.00054264643,"MEAN_MOTION_DOT":0.00042337,"MEAN_MOTION_DDOT":0},{"OBJECT_NAME":"SL-14 R/B","OBJECT_ID":"1986-046B","EPOCH":"2026-03-15T01:27:51.469632","MEAN_MOTION":14.85596186,"ECCENTRICITY":0.00223387,"INCLINATION":82.4783,"RA_OF_ASC_NODE":75.1047,"ARG_OF_PERICENTER":206.8387,"MEAN_ANOMALY":153.1675,"EPHEMERIS_TYPE":0,"CLASSIFICATION_TYPE":"U","NORAD_CAT_ID":16792,"ELEMENT_SET_NO":999,"REV_AT_EPOCH":12720,"BSTAR":6.0316022e-5,"MEAN_MOTION_DOT":5.48e-6,"MEAN_MOTION_DDOT":0},{"OBJECT_NAME":"SL-14 R/B","OBJECT_ID":"1986-055B","EPOCH":"2026-03-15T04:34:43.089600","MEAN_MOTION":14.8564781,"ECCENTRICITY":0.0017757,"INCLINATION":82.519,"RA_OF_ASC_NODE":121.5032,"ARG_OF_PERICENTER":317.52,"MEAN_ANOMALY":102.0903,"EPHEMERIS_TYPE":0,"CLASSIFICATION_TYPE":"U","NORAD_CAT_ID":16882,"ELEMENT_SET_NO":999,"REV_AT_EPOCH":12018,"BSTAR":4.6890588e-5,"MEAN_MOTION_DOT":4.31e-6,"MEAN_MOTION_DDOT":0},{"OBJECT_NAME":"AJISAI (EGS)","OBJECT_ID":"1986-061A","EPOCH":"2026-03-15T07:47:14.301312","MEAN_MOTION":12.44515679,"ECCENTRICITY":0.00112833,"INCLINATION":50.0084,"RA_OF_ASC_NODE":76.0197,"ARG_OF_PERICENTER":301.502,"MEAN_ANOMALY":71.7644,"EPHEMERIS_TYPE":0,"CLASSIFICATION_TYPE":"U","NORAD_CAT_ID":16908,"ELEMENT_SET_NO":999,"REV_AT_EPOCH":46870,"BSTAR":5.1550826e-5,"MEAN_MOTION_DOT":-9.0e-7,"MEAN_MOTION_DDOT":0},{"OBJECT_NAME":"SL-14 R/B","OBJECT_ID":"1987-024B","EPOCH":"2026-03-15T07:03:59.956416","MEAN_MOTION":14.86137644,"ECCENTRICITY":0.00168491,"INCLINATION":82.5244,"RA_OF_ASC_NODE":87.4942,"ARG_OF_PERICENTER":239.7466,"MEAN_ANOMALY":120.2083,"EPHEMERIS_TYPE":0,"CLASSIFICATION_TYPE":"U","NORAD_CAT_ID":17567,"ELEMENT_SET_NO":999,"REV_AT_EPOCH":8896,"BSTAR":5.2686945e-5,"MEAN_MOTION_DOT":4.87e-6,"MEAN_MOTION_DDOT":0},{"OBJECT_NAME":"COSMOS 1833","OBJECT_ID":"1987-027A","EPOCH":"2026-03-15T00:40:12.541152","MEAN_MOTION":14.13053299,"ECCENTRICITY":0.00239993,"INCLINATION":70.9211,"RA_OF_ASC_NODE":314.7998,"ARG_OF_PERICENTER":206.9492,"MEAN_ANOMALY":153.0385,"EPHEMERIS_TYPE":0,"CLASSIFICATION_TYPE":"U","NORAD_CAT_ID":17589,"ELEMENT_SET_NO":999,"REV_AT_EPOCH":1107,"BSTAR":-8.1492102e-5,"MEAN_MOTION_DOT":-2.01e-6,"MEAN_MOTION_DDOT":0},{"OBJECT_NAME":"SL-16 R/B","OBJECT_ID":"1987-027B","EPOCH":"2026-03-15T06:26:34.847232","MEAN_MOTION":14.17166638,"ECCENTRICITY":0.00031726,"INCLINATION":70.9992,"RA_OF_ASC_NODE":264.738,"ARG_OF_PERICENTER":130.0198,"MEAN_ANOMALY":230.1204,"EPHEMERIS_TYPE":0,"CLASSIFICATION_TYPE":"U","NORAD_CAT_ID":17590,"ELEMENT_SET_NO":999,"REV_AT_EPOCH":1613,"BSTAR":3.3620932e-5,"MEAN_MOTION_DOT":2.0e-7,"MEAN_MOTION_DDOT":0},{"OBJECT_NAME":"SL-14 R/B","OBJECT_ID":"1987-038B","EPOCH":"2026-03-15T02:09:53.851104","MEAN_MOTION":14.8537456,"ECCENTRICITY":0.00201133,"INCLINATION":82.4992,"RA_OF_ASC_NODE":291.7196,"ARG_OF_PERICENTER":143.2143,"MEAN_ANOMALY":217.0458,"EPHEMERIS_TYPE":0,"CLASSIFICATION_TYPE":"U","NORAD_CAT_ID":17912,"ELEMENT_SET_NO":999,"REV_AT_EPOCH":8003,"BSTAR":5.4146871e-5,"MEAN_MOTION_DOT":4.92e-6,"MEAN_MOTION_DDOT":0},{"OBJECT_NAME":"COSMOS 1844","OBJECT_ID":"1987-041A","EPOCH":"2026-03-15T06:28:10.953408","MEAN_MOTION":14.14551198,"ECCENTRICITY":0.00303033,"INCLINATION":70.9005,"RA_OF_ASC_NODE":22.4059,"ARG_OF_PERICENTER":9.6778,"MEAN_ANOMALY":350.4921,"EPHEMERIS_TYPE":0,"CLASSIFICATION_TYPE":"U","NORAD_CAT_ID":17973,"ELEMENT_SET_NO":999,"REV_AT_EPOCH":437,"BSTAR":-2.7001365e-5,"MEAN_MOTION_DOT":-1.0e-6,"MEAN_MOTION_DDOT":0},{"OBJECT_NAME":"SL-14 R/B","OBJECT_ID":"1987-055B","EPOCH":"2026-03-15T04:49:14.648736","MEAN_MOTION":14.85636064,"ECCENTRICITY":0.00206531,"INCLINATION":82.5028,"RA_OF_ASC_NODE":343.8387,"ARG_OF_PERICENTER":359.9032,"MEAN_ANOMALY":0.2176,"EPHEMERIS_TYPE":0,"CLASSIFICATION_TYPE":"U","NORAD_CAT_ID":18153,"ELEMENT_SET_NO":999,"REV_AT_EPOCH":7075,"BSTAR":5.6193674e-5,"MEAN_MOTION_DOT":5.12e-6,"MEAN_MOTION_DDOT":0},{"OBJECT_NAME":"COSMOS 1867","OBJECT_ID":"1987-060A","EPOCH":"2026-03-14T23:02:52.705536","MEAN_MOTION":14.31503866,"ECCENTRICITY":0.00145708,"INCLINATION":65.0102,"RA_OF_ASC_NODE":291.945,"ARG_OF_PERICENTER":278.9657,"MEAN_ANOMALY":80.9778,"EPHEMERIS_TYPE":0,"CLASSIFICATION_TYPE":"U","NORAD_CAT_ID":18187,"ELEMENT_SET_NO":999,"REV_AT_EPOCH":2069,"BSTAR":3.5794457e-5,"MEAN_MOTION_DOT":-5.0e-8,"MEAN_MOTION_DDOT":0},{"OBJECT_NAME":"SL-14 R/B","OBJECT_ID":"1988-001B","EPOCH":"2026-03-15T06:20:03.291072","MEAN_MOTION":14.85535034,"ECCENTRICITY":0.00171903,"INCLINATION":82.5159,"RA_OF_ASC_NODE":190.1186,"ARG_OF_PERICENTER":216.1037,"MEAN_ANOMALY":143.902,"EPHEMERIS_TYPE":0,"CLASSIFICATION_TYPE":"U","NORAD_CAT_ID":18749,"ELEMENT_SET_NO":999,"REV_AT_EPOCH":4285,"BSTAR":6.434101e-5,"MEAN_MOTION_DOT":5.81e-6,"MEAN_MOTION_DDOT":0},{"OBJECT_NAME":"COSMOS 1933","OBJECT_ID":"1988-020A","EPOCH":"2026-03-14T22:21:38.073024","MEAN_MOTION":15.18040732,"ECCENTRICITY":0.0004324,"INCLINATION":82.5104,"RA_OF_ASC_NODE":245.7245,"ARG_OF_PERICENTER":165.6738,"MEAN_ANOMALY":194.4619,"EPHEMERIS_TYPE":0,"CLASSIFICATION_TYPE":"U","NORAD_CAT_ID":18958,"ELEMENT_SET_NO":999,"REV_AT_EPOCH":5102,"BSTAR":0.00026406821,"MEAN_MOTION_DOT":5.404e-5,"MEAN_MOTION_DDOT":0},{"OBJECT_NAME":"SL-3 R/B","OBJECT_ID":"1988-032B","EPOCH":"2026-03-15T06:18:08.865504","MEAN_MOTION":15.19979658,"ECCENTRICITY":0.00248685,"INCLINATION":97.5192,"RA_OF_ASC_NODE":57.4939,"ARG_OF_PERICENTER":211.0169,"MEAN_ANOMALY":148.9599,"EPHEMERIS_TYPE":0,"CLASSIFICATION_TYPE":"U","NORAD_CAT_ID":19046,"ELEMENT_SET_NO":999,"REV_AT_EPOCH":5295,"BSTAR":0.00025023314,"MEAN_MOTION_DOT":5.359e-5,"MEAN_MOTION_DDOT":0},{"OBJECT_NAME":"SL-16 R/B","OBJECT_ID":"1988-039B","EPOCH":"2026-03-15T06:21:36.521856","MEAN_MOTION":14.19616757,"ECCENTRICITY":0.00230553,"INCLINATION":71.0141,"RA_OF_ASC_NODE":56.7572,"ARG_OF_PERICENTER":326.218,"MEAN_ANOMALY":33.7475,"EPHEMERIS_TYPE":0,"CLASSIFICATION_TYPE":"U","NORAD_CAT_ID":19120,"ELEMENT_SET_NO":999,"REV_AT_EPOCH":95917,"BSTAR":9.9914349e-5,"MEAN_MOTION_DOT":1.63e-6,"MEAN_MOTION_DDOT":0},{"OBJECT_NAME":"COSMOS 1953","OBJECT_ID":"1988-050A","EPOCH":"2026-03-15T06:07:46.231680","MEAN_MOTION":15.2862843,"ECCENTRICITY":0.00126085,"INCLINATION":82.5102,"RA_OF_ASC_NODE":152.6499,"ARG_OF_PERICENTER":104.9751,"MEAN_ANOMALY":255.2886,"EPHEMERIS_TYPE":0,"CLASSIFICATION_TYPE":"U","NORAD_CAT_ID":19210,"ELEMENT_SET_NO":999,"REV_AT_EPOCH":3863,"BSTAR":0.00030055666,"MEAN_MOTION_DOT":8.419e-5,"MEAN_MOTION_DDOT":0}]
